{"type": "FeatureCollection", "features": [ {"type": "Feature", "properties": {"norad_id": 34077, "name": "IRIDIUM 33 DEB", "group": "iridium-33-debris", "lat": 13.003131369627019, "lon": 48.63271413880872, "alt_km": 672.0394750871747, "timestamp": "2025-12-21T03:56:51.218060+00:00", "meta": {"OBJECT_NAME": "IRIDIUM 33 DEB", "OBJECT_ID": "1997-051CL", "EPOCH": "2025-12-20T15:28:27.275232", "MEAN_MOTION": 14.64914051, "ECCENTRICITY": 0.0009286, "INCLINATION": 86.3851, "RA_OF_ASC_NODE": 48.0252, "ARG_OF_PERICENTER": 14.2051, "MEAN_ANOMALY": 139.8659, "EPHEMERIS_TYPE": 0, "CLASSIFICATION_TYPE": "U", "NORAD_CAT_ID": 34077, "ELEMENT_SET_NO": 999, "REV_AT_EPOCH": 88448, "BSTAR": 0.00067746, "MEAN_MOTION_DOT": 3.646e-05, "MEAN_MOTION_DDOT": 0}, "tle": {"line1": "1 34077U 97051CL  25354.64476013  .00003646  00000+0  67746-3 0  9994", "line2": "2 34077  86.3851  48.0252 0009286  14.2051 139.8659 14.64914051884481"}}, "geometry": {"type": "Point", "coordinates": [48.63271413880872, 13.003131369627019]}}, {"type": "Feature", "properties": {"norad_id": 34079, "name": "IRIDIUM 33 DEB", "group": "iridium-33-debris", "lat": -32.79047206292371, "lon": -172.8302359374113, "alt_km": 625.764794182287, "timestamp": "2025-12-21T03:56:51.218070+00:00", "meta": {"OBJECT_NAME": "IRIDIUM 33 DEB", "OBJECT_ID": "1997-051CN", "EPOCH": "2025-12-20T07:37:00.373152", "MEAN_MOTION": 14.83707217, "ECCENTRICITY": 0.00047155, "INCLINATION": 86.3768, "RA_OF_ASC_NODE": 5.2156, "ARG_OF_PERICENTER": 341.2972, "MEAN_ANOMALY": 29.7285, "EPHEMERIS_TYPE": 0, "CLASSIFICATION_TYPE": "U", "NORAD_CAT_ID": 34079, "ELEMENT_SET_NO": 999, "REV_AT_EPOCH": 89090, "BSTAR": 0.0011458545, "MEAN_MOTION_DOT": 9.499e-05, "MEAN_MOTION_DDOT": 0}, "tle": {"line1": "1 34079U 97051CN  25354.31736543  .00009499  00000+0  11459-2 0  9998", "line2": "2 34079  86.3768   5.2156 0004715 341.2972  29.7285 14.83707217890906"}}, "geometry": {"type": "Point", "coordinates": [-172.8302359374113, -32.79047206292371]}}, {"type": "Feature", "properties": {"norad_id": 34088, "name": "IRIDIUM 33 DEB", "group": "iridium-33-debris", "lat": -4.732360665045127, "lon": -152.84781970985966, "alt_km": 592.6037245036496, "timestamp": "2025-12-21T03:56:51.218079+00:00", "meta": {"OBJECT_NAME": "IRIDIUM 33 DEB", "OBJECT_ID": "1997-051CX", "EPOCH": "2025-12-20T01:29:37.281120", "MEAN_MOTION": 14.9169164, "ECCENTRICITY": 0.0006466, "INCLINATION": 86.3842, "RA_OF_ASC_NODE": 27.3589, "ARG_OF_PERICENTER": 153.3403, "MEAN_ANOMALY": 235.9617, "EPHEMERIS_TYPE": 0, "CLASSIFICATION_TYPE": "U", "NORAD_CAT_ID": 34088, "ELEMENT_SET_NO": 999, "REV_AT_EPOCH": 88851, "BSTAR": 0.0014202951, "MEAN_MOTION_DOT": 0.00014326, "MEAN_MOTION_DDOT": 0}, "tle": {"line1": "1 34088U 97051CX  25354.06223705  .00014326  00000+0  14203-2 0  9996", "line2": "2 34088  86.3842  27.3589 0006466 153.3403 235.9617 14.91691640888515"}}, "geometry": {"type": "Point", "coordinates": [-152.84781970985966, -4.732360665045127]}}, {"type": "Feature", "properties": {"norad_id": 34091, "name": "IRIDIUM 33 DEB", "group": "iridium-33-debris", "lat": 83.11493181049642, "lon": 94.96984680918982, "alt_km": 638.2537398039576, "timestamp": "2025-12-21T03:56:51.218088+00:00", "meta": {"OBJECT_NAME": "IRIDIUM 33 DEB", "OBJECT_ID": "1997-051DA", "EPOCH": "2025-12-20T11:21:59.020992", "MEAN_MOTION": 14.82341401, "ECCENTRICITY": 0.00340405, "INCLINATION": 86.3417, "RA_OF_ASC_NODE": 63.2908, "ARG_OF_PERICENTER": 265.3506, "MEAN_ANOMALY": 94.3828, "EPHEMERIS_TYPE": 0, "CLASSIFICATION_TYPE": "U", "NORAD_CAT_ID": 34091, "ELEMENT_SET_NO": 999, "REV_AT_EPOCH": 87981, "BSTAR": 0.0030472538, "MEAN_MOTION_DOT": 0.00024698, "MEAN_MOTION_DDOT": 0}, "tle": {"line1": "1 34091U 97051DA  25354.47359978  .00024698  00000+0  30473-2 0  9997", "line2": "2 34091  86.3417  63.2908 0034040 265.3506  94.3828 14.82341401879819"}}, "geometry": {"type": "Point", "coordinates": [94.96984680918982, 83.11493181049642]}}, {"type": "Feature", "properties": {"norad_id": 34097, "name": "IRIDIUM 33 DEB", "group": "iridium-33-debris", "lat": -20.640847474355475, "lon": -3.7453751881605952, "alt_km": 722.6332566696565, "timestamp": "2025-12-21T03:56:51.218098+00:00", "meta": {"OBJECT_NAME": "IRIDIUM 33 DEB", "OBJECT_ID": "1997-051DG", "EPOCH": "2025-12-20T11:18:18.737280", "MEAN_MOTION": 14.34833925, "ECCENTRICITY": 0.00817307, "INCLINATION": 86.2, "RA_OF_ASC_NODE": 357.9952, "ARG_OF_PERICENTER": 336.8917, "MEAN_ANOMALY": 22.861, "EPHEMERIS_TYPE": 0, "CLASSIFICATION_TYPE": "U", "NORAD_CAT_ID": 34097, "ELEMENT_SET_NO": 999, "REV_AT_EPOCH": 87230, "BSTAR": 0.0010165837, "MEAN_MOTION_DOT": 3.014e-05, "MEAN_MOTION_DDOT": 0}, "tle": {"line1": "1 34097U 97051DG  25354.47105020  .00003014  00000+0  10166-2 0  9996", "line2": "2 34097  86.2000 357.9952 0081730 336.8917  22.8610 14.34833925872308"}}, "geometry": {"type": "Point", "coordinates": [-3.7453751881605952, -20.640847474355475]}}, {"type": "Feature", "properties": {"norad_id": 34145, "name": "IRIDIUM 33 DEB", "group": "iridium-33-debris", "lat": 63.22917229078929, "lon": 141.2267943129766, "alt_km": 718.7528652544233, "timestamp": "2025-12-21T03:56:51.218107+00:00", "meta": {"OBJECT_NAME": "IRIDIUM 33 DEB", "OBJECT_ID": "1997-051DY", "EPOCH": "2025-12-20T09:05:57.135264", "MEAN_MOTION": 14.42338365, "ECCENTRICITY": 0.00557355, "INCLINATION": 86.2115, "RA_OF_ASC_NODE": 329.1236, "ARG_OF_PERICENTER": 69.5659, "MEAN_ANOMALY": 291.1513, "EPHEMERIS_TYPE": 0, "CLASSIFICATION_TYPE": "U", "NORAD_CAT_ID": 34145, "ELEMENT_SET_NO": 999, "REV_AT_EPOCH": 87748, "BSTAR": 0.00077021697, "MEAN_MOTION_DOT": 2.611e-05, "MEAN_MOTION_DDOT": 0}, "tle": {"line1": "1 34145U 97051DY  25354.37913351  .00002611  00000+0  77022-3 0  9990", "line2": "2 34145  86.2115 329.1236 0055735  69.5659 291.1513 14.42338365877488"}}, "geometry": {"type": "Point", "coordinates": [141.2267943129766, 63.22917229078929]}}, {"type": "Feature", "properties": {"norad_id": 34146, "name": "IRIDIUM 33 DEB", "group": "iridium-33-debris", "lat": -41.44555509638682, "lon": -17.212439174409205, "alt_km": 746.2446163680479, "timestamp": "2025-12-21T03:56:51.218117+00:00", "meta": {"OBJECT_NAME": "IRIDIUM 33 DEB", "OBJECT_ID": "1997-051DZ", "EPOCH": "2025-12-20T10:36:37.304352", "MEAN_MOTION": 14.49095208, "ECCENTRICITY": 0.00262607, "INCLINATION": 86.283, "RA_OF_ASC_NODE": 346.3974, "ARG_OF_PERICENTER": 194.7947, "MEAN_ANOMALY": 317.4256, "EPHEMERIS_TYPE": 0, "CLASSIFICATION_TYPE": "U", "NORAD_CAT_ID": 34146, "ELEMENT_SET_NO": 999, "REV_AT_EPOCH": 88218, "BSTAR": 0.00059944717, "MEAN_MOTION_DOT": 2.307e-05, "MEAN_MOTION_DDOT": 0}, "tle": {"line1": "1 34146U 97051DZ  25354.44209843  .00002307  00000+0  59945-3 0  9999", "line2": "2 34146  86.2830 346.3974 0026260 194.7947 317.4256 14.49095208882187"}}, "geometry": {"type": "Point", "coordinates": [-17.212439174409205, -41.44555509638682]}}, {"type": "Feature", "properties": {"norad_id": 34159, "name": "IRIDIUM 33 DEB", "group": "iridium-33-debris", "lat": 72.55541599868448, "lon": 56.36972903263572, "alt_km": 775.0599269846416, "timestamp": "2025-12-21T03:56:51.218126+00:00", "meta": {"OBJECT_NAME": "IRIDIUM 33 DEB", "OBJECT_ID": "1997-051EN", "EPOCH": "2025-12-20T15:55:20.560224", "MEAN_MOTION": 14.38511056, "ECCENTRICITY": 0.002604, "INCLINATION": 86.3499, "RA_OF_ASC_NODE": 44.8627, "ARG_OF_PERICENTER": 259.811, "MEAN_ANOMALY": 100.0151, "EPHEMERIS_TYPE": 0, "CLASSIFICATION_TYPE": "U", "NORAD_CAT_ID": 34159, "ELEMENT_SET_NO": 999, "REV_AT_EPOCH": 88073, "BSTAR": 0.00025987, "MEAN_MOTION_DOT": 8.16e-06, "MEAN_MOTION_DDOT": 0}, "tle": {"line1": "1 34159U 97051EN  25354.66343241  .00000816  00000+0  25987-3 0  9990", "line2": "2 34159  86.3499  44.8627 0026040 259.8110 100.0151 14.38511056880730"}}, "geometry": {"type": "Point", "coordinates": [56.36972903263572, 72.55541599868448]}}, {"type": "Feature", "properties": {"norad_id": 34350, "name": "IRIDIUM 33 DEB", "group": "iridium-33-debris", "lat": -49.586570387071426, "lon": -5.175004816038531, "alt_km": 763.1752280969158, "timestamp": "2025-12-21T03:56:51.218135+00:00", "meta": {"OBJECT_NAME": "IRIDIUM 33 DEB", "OBJECT_ID": "1997-051ES", "EPOCH": "2025-12-20T12:08:32.676864", "MEAN_MOTION": 14.45403421, "ECCENTRICITY": 0.00233571, "INCLINATION": 86.3272, "RA_OF_ASC_NODE": 359.437, "ARG_OF_PERICENTER": 111.3737, "MEAN_ANOMALY": 14.544, "EPHEMERIS_TYPE": 0, "CLASSIFICATION_TYPE": "U", "NORAD_CAT_ID": 34350, "ELEMENT_SET_NO": 999, "REV_AT_EPOCH": 88405, "BSTAR": 0.00023374563, "MEAN_MOTION_DOT": 8.45e-06, "MEAN_MOTION_DDOT": 0}, "tle": {"line1": "1 34350U 97051ES  25354.50593376  .00000845  00000+0  23375-3 0  9993", "line2": "2 34350  86.3272 359.4370 0023357 111.3737  14.5440 14.45403421884050"}}, "geometry": {"type": "Point", "coordinates": [-5.175004816038531, -49.586570387071426]}}, {"type": "Feature", "properties": {"norad_id": 34366, "name": "IRIDIUM 33 DEB", "group": "iridium-33-debris", "lat": -2.093311007823224, "lon": -134.21778358130658, "alt_km": 709.6271470563042, "timestamp": "2025-12-21T03:56:51.218144+00:00", "meta": {"OBJECT_NAME": "IRIDIUM 33 DEB", "OBJECT_ID": "1997-051FJ", "EPOCH": "2025-12-20T14:28:26.320224", "MEAN_MOTION": 14.54113627, "ECCENTRICITY": 0.0022983, "INCLINATION": 86.369, "RA_OF_ASC_NODE": 45.8934, "ARG_OF_PERICENTER": 115.1791, "MEAN_ANOMALY": 9.6225, "EPHEMERIS_TYPE": 0, "CLASSIFICATION_TYPE": "U", "NORAD_CAT_ID": 34366, "ELEMENT_SET_NO": 999, "REV_AT_EPOCH": 88296, "BSTAR": 0.00058239, "MEAN_MOTION_DOT": 2.489e-05, "MEAN_MOTION_DDOT": 0}, "tle": {"line1": "1 34366U 97051FJ  25354.60308241  .00002489  00000+0  58239-3 0  9999", "line2": "2 34366  86.3690  45.8934 0022983 115.1791   9.6225 14.54113627882969"}}, "geometry": {"type": "Point", "coordinates": [-134.21778358130658, -2.093311007823224]}}]}